[{"OBJECT_NAME":"STARLINK-35794","OBJECT_ID":"2025-298L","EPOCH":"2026-03-09T22:40:21.040608","MEAN_MOTION":14.99140238,"ECCENTRICITY":0.000246,"INCLINATION":70.0018,"RA_OF_ASC_NODE":13.8954,"ARG_OF_PERICENTER":239.7803,"MEAN_ANOMALY":120.3113,"EPHEMERIS_TYPE":0,"CLASSIFICATION_TYPE":"U","NORAD_CAT_ID":67085,"ELEMENT_SET_NO":999,"REV_AT_EPOCH":1325,"BSTAR":0.00057556911,"MEAN_MOTION_DOT":6.926e-5,"MEAN_MOTION_DDOT":0},{"OBJECT_NAME":"FENGYUN 1C DEB","OBJECT_ID":"1999-025DDB","EPOCH":"2026-03-09T10:56:14.251200","MEAN_MOTION":14.6302195,"ECCENTRICITY":0.01614875,"INCLINATION":98.5209,"RA_OF_ASC_NODE":163.6485,"ARG_OF_PERICENTER":230.9829,"MEAN_ANOMALY":127.6902,"EPHEMERIS_TYPE":0,"CLASSIFICATION_TYPE":"U","NORAD_CAT_ID":33618,"ELEMENT_SET_NO":999,"REV_AT_EPOCH":98051,"BSTAR":0.0010717723,"MEAN_MOTION_DOT":6.58e-5,"MEAN_MOTION_DDOT":0}]
